ONEWEB-0387             
1 49313U 21090AL  24198.16180049  .00000072  00000+0  14492-3 0  9996
2 49313  87.9191  53.9726 0001872  95.9310 264.2037 13.20771105138591
ONEWEB-0388             
1 49314U 21090AM  24198.17830760  .00000126  00000+0  28221-3 0  9995
2 49314  87.9140  84.4668 0001996  77.9300 282.2057 13.19724086135241
ONEWEB-0389             
1 50469U 21132A   24197.92886243  .00000067  00000+0  13826-3 0  9993
2 50469  87.9189 145.4942 0002056  93.6840 266.4526 13.17650365125736
ONEWEB-0390             
1 50470U 21132B   24197.93048184  .00000096  00000+0  21484-3 0  9991
2 50470  87.9187 145.5016 0001709  83.8741 276.2585 13.17652149127024
ONEWEB-0391             
1 50471U 21132C   24197.93209306  .00000094  00000+0  20804-3 0  9990
2 50471  87.9198 145.4867 0002163  91.2634 268.8746 13.17650794125735
ONEWEB-0392             
1 50472U 21132D   24197.88524671 -.00000164  00000+0 -45611-3 0  9993
2 50472  87.9179 145.4917 0002160  96.7443 263.3934 13.17648382127052
ONEWEB-0393             
1 50473U 21132E   24197.93548528  .00000235  00000+0  57141-3 0  9995
2 50473  87.9192 145.4614 0002065  88.6457 271.4911 13.17649307125760
ONEWEB-0394             
1 50474U 21132F   24198.15074391  .00000107  00000+0  23863-3 0  9995
2 50474  87.9147 115.0170 0002060  80.3643 279.7722 13.18687082130470
